satname,norad_id,inclination_deg,eccentricity,mean_motion_rev_per_day,perigee_km,apogee_km,l1,l2
STARLINK-1513,45786,53.0548,0.0001351,15.06396543,546.2865371440475,548.1577691872335,1 45786U 20038BJ  26018.35777321  .00001299  00000+0  10609-3 0  9994,2 45786  53.0548  62.5682 0001351  91.9497 268.1646 15.06396543309170
STARLINK-1522,46027,53.0553,0.0001403,15.06398309,546.2451134847688,548.1883677443857,1 46027U 20055A   26018.20574961  .00002233  00000+0  16878-3 0  9994,2 46027  53.0553 353.2465 0001403  85.2168 274.8982 15.06398309301275
STARLINK-1523,46028,53.0569,0.0001434,15.06394242,546.236107921327,548.222302949046,1 46028U 20055B   26018.61856608 -.00000505  00000+0 -15012-4 0  9993,2 46028  53.0569 351.3972 0001434  87.7347 272.3806 15.06394242301354
STARLINK-1526,46029,53.0559,0.0001147,15.06423696,546.34460491348,547.9332632127544,1 46029U 20055C   26018.21308722  .00003297  00000+0  23995-3 0  9996,2 46029  53.0559 353.2150 0001147  98.0441 262.0678 15.06423696301285
STARLINK-1555,46032,53.0559,0.0001672,15.06391975,546.0782311253861,548.3940759079223,1 46032U 20055F   26018.33106464  .00000968  00000+0  83899-4 0  9994,2 46032  53.0559 352.6848 0001672  95.4321 264.6859 15.06391975301303
STARLINK-1556,46033,53.0553,0.0001389,15.06393465,546.2696531477586,548.1935205411855,1 46033U 20055G   26018.64436249  .00000352  00000+0  42502-4 0  9999,2 46033  53.0553 351.2796 0001389  88.0046 272.1102 15.06393465301325
STARLINK-1557,46034,53.0563,0.0001439,15.06395174,546.2297891867765,548.222908758612,1 46034U 20055H   26018.18362260  .00000075  00000+0  23922-4 0  9997,2 46034  53.0563 353.3478 0001439  90.2493 269.8661 15.06395174301258
STARLINK-1558,46035,53.0535,0.0001849,15.06412106,545.8939649523018,548.4549451283765,1 46035U 20055J   26018.19099103  .00001103  00000+0  92902-4 0  9999,2 46035  53.0535 353.3142 0001849  93.5737 266.5463 15.06412106301280
STARLINK-1560,46036,53.0558,0.0001136,15.06416767,546.3734562163027,547.9468837333216,1 46036U 20055K   26018.64067662  .00006873  00000+0  47966-3 0  9993,2 46036  53.0558 351.2975 0001136  97.2709 262.8409 15.06416767301350
STARLINK-1567,46038,53.0556,0.0001474,15.06395842,546.203503382867,548.2450998945897,1 46038U 20055M   26018.18731059 -.00000406  00000+0 -83927-5 0  9999,2 46038  53.0556 353.3318 0001474  86.9526 273.1632 15.06395842301275
STARLINK-1569,46039,53.0558,0.000132,15.06391064,546.3247960018216,548.1530952514677,1 46039U 20055N   26018.19468333 -.00000767  00000+0 -32646-4 0  9994,2 46039  53.0558 353.2988 0001320  88.9834 271.1306 15.06391064301272
STARLINK-1582,46043,53.0546,0.000144,15.0641504,546.1682193332908,548.162706442602,1 46043U 20055S   26018.33474699  .00003758  00000+0  27092-3 0  9996,2 46043  53.0546 352.6685 0001440  96.7485 263.3668 15.06415040301290
STARLINK-1591,46045,53.0552,0.0001333,15.06395151,546.3032685209437,548.1495704085728,1 46045U 20055U   26018.62593825  .00000706  00000+0  66305-4 0  9994,2 46045  53.0552 351.3624 0001333  92.2523 267.8619 15.06395151301322
STARLINK-1524,46047,53.0561,0.000128,15.06394718,546.3412998672738,548.1141932423916,1 46047U 20055W   26018.31354823 -.00001111  00000+0 -55725-4 0  9992,2 46047  53.0561 342.7641 0001280  92.2228 267.8908 15.06394718301431
STARLINK-1527,46048,53.0556,0.0001527,15.06394442,546.1710891341854,548.2860957861221,1 46048U 20055X   26018.30986708 -.00000165  00000+0  77903-5 0  9995,2 46048  53.0556 342.7814 0001527  86.5085 273.6079 15.06394442301415
STARLINK-1540,46051,53.0556,0.0001252,15.06394418,546.3616102357646,548.095721798536,1 46051U 20055AA  26018.60842466 -.00000795  00000+0 -34508-4 0  9997,2 46051  53.0556 341.4398 0001252  94.3184 265.7948 15.06394418301492
STARLINK-1541,46052,53.0565,0.0001417,15.06393782,546.2492906871894,548.2119398693594,1 46052U 20055AB  26018.59368340 -.00001050  00000+0 -51635-4 0  9995,2 46052  53.0565 341.5080 0001417  96.6868 263.4283 15.06393782301455
STARLINK-1543,46053,53.0565,0.000128,15.06393623,546.344655476637,548.1175497108998,1 46053U 20055AC  26018.59736723 -.00001072  00000+0 -53096-4 0  9997,2 46053  53.0565 341.4910 0001280  90.6102 269.5034 15.06393623301488
STARLINK-1548,46054,53.0565,0.0001452,15.06386176,546.248360068691,548.2594935938423,1 46054U 20055AD  26018.33935221  .00000276  00000+0  37464-4 0  9998,2 46054  53.0565 342.6495 0001452  76.8741 283.2410 15.06386176301448
STARLINK-1554,46055,53.0554,0.0001301,15.06400142,546.3101349379958,548.1121105195307,1 46055U 20055AE  26018.58999610  .00000558  00000+0  56318-4 0  9990,2 46055  53.0554 341.5241 0001301  90.8184 269.2954 15.06400142301485
STARLINK-1564,46058,53.0582,0.0001537,15.0639442,546.1642311854757,548.2930885893256,1 46058U 20055AH  26018.60111128 -.00001712  00000+0 -96081-4 0  9992,2 46058  53.0582 341.9390 0001537 105.9734 254.1424 15.06394420301473
STARLINK-1570,46059,53.0551,0.0001424,15.06394978,546.2407778613024,548.2131215141744,1 46059U 20055AJ  26018.63053923 -.00000369  00000+0 -58766-5 0  9990,2 46059  53.0551 341.3446 0001424  87.3492 272.7660 15.06394978301448
STARLINK-1572,46060,53.057,0.0001279,15.06387891,546.3629137006055,548.1344273551267,1 46060U 20055AK  26018.62685726  .00001489  00000+0  11885-3 0  9994,2 46060  53.0570 341.3579 0001279  92.1402 267.9734 15.06387891301456
STARLINK-1573,46061,53.0567,0.000156,15.06398511,546.1357664256248,548.2964765995366,1 46061U 20055AL  26018.62317728  .00000758  00000+0  69781-4 0  9996,2 46061  53.0567 341.4131 0001560  89.7641 270.3526 15.06398511301489
STARLINK-1577,46063,53.0557,0.0001566,15.06397721,546.1340320758527,548.3030534318432,1 46063U 20055AN  26018.58261817 -.00000814  00000+0 -35778-4 0  9994,2 46063  53.0557 341.5570 0001566  88.6002 271.5167 15.06397721301478
STARLINK-1583,46064,53.0551,0.0001273,15.0639943,546.3317078129194,548.0949020005482,1 46064U 20055AP  26018.61579396 -.00000014  00000+0  17950-4 0  9996,2 46064  53.0551 341.4059 0001273  93.5734 266.5400 15.06399430301480
STARLINK-1525,46066,53.0575,0.0001474,15.06398776,546.194512394135,548.2361062549235,1 46066U 20055AR  26018.54760695 -.00000092  00000+0  12740-4 0  9992,2 46066  53.0575 321.7152 0001474  97.6771 262.4385 15.06398776301740
STARLINK-1536,46070,53.0553,0.0001265,15.06394469,546.3524509715571,548.104568445513,1 46070U 20055AV  26018.52549177 -.00001712  00000+0 -96077-4 0  9991,2 46070  53.0553 321.8142 0001265  90.9076 269.2059 15.06394469301752
